[{"OBJECT_NAME":"KUIPER-00102","OBJECT_ID":"2025-171J","EPOCH":"2026-03-04T11:35:23.783424","MEAN_MOTION":14.7998214,"ECCENTRICITY":5.6e-5,"INCLINATION":51.8988,"RA_OF_ASC_NODE":176.1019,"ARG_OF_PERICENTER":84.2222,"MEAN_ANOMALY":275.8804,"EPHEMERIS_TYPE":0,"CLASSIFICATION_TYPE":"U","NORAD_CAT_ID":65140,"ELEMENT_SET_NO":999,"REV_AT_EPOCH":3218,"BSTAR":0.0011395,"MEAN_MOTION_DOT":8.487e-5,"MEAN_MOTION_DDOT":0},{"OBJECT_NAME":"KUIPER-00103","OBJECT_ID":"2025-171K","EPOCH":"2026-03-03T14:52:49.150848","MEAN_MOTION":14.79980418,"ECCENTRICITY":0.0002193,"INCLINATION":51.8989,"RA_OF_ASC_NODE":197.4104,"ARG_OF_PERICENTER":125.2704,"MEAN_ANOMALY":234.8464,"EPHEMERIS_TYPE":0,"CLASSIFICATION_TYPE":"U","NORAD_CAT_ID":65141,"ELEMENT_SET_NO":999,"REV_AT_EPOCH":3181,"BSTAR":0.00080767,"MEAN_MOTION_DOT":5.948e-5,"MEAN_MOTION_DDOT":0},{"OBJECT_NAME":"KUIPER-00104","OBJECT_ID":"2025-171L","EPOCH":"2026-03-04T07:24:29.249568","MEAN_MOTION":14.79911932,"ECCENTRICITY":5.58e-5,"INCLINATION":51.9012,"RA_OF_ASC_NODE":181.8248,"ARG_OF_PERICENTER":58.147,"MEAN_ANOMALY":301.9546,"EPHEMERIS_TYPE":0,"CLASSIFICATION_TYPE":"U","NORAD_CAT_ID":65142,"ELEMENT_SET_NO":999,"REV_AT_EPOCH":3209,"BSTAR":-0.00083775,"MEAN_MOTION_DOT":-6.598e-5,"MEAN_MOTION_DDOT":0},{"OBJECT_NAME":"KUIPER-00105","OBJECT_ID":"2025-171M","EPOCH":"2026-03-04T08:01:03.381888","MEAN_MOTION":14.79893247,"ECCENTRICITY":0.0001013,"INCLINATION":51.8998,"RA_OF_ASC_NODE":189.3316,"ARG_OF_PERICENTER":96.304,"MEAN_ANOMALY":263.8038,"EPHEMERIS_TYPE":0,"CLASSIFICATION_TYPE":"U","NORAD_CAT_ID":65143,"ELEMENT_SET_NO":999,"REV_AT_EPOCH":3199,"BSTAR":-0.0050912,"MEAN_MOTION_DOT":-0.00038773,"MEAN_MOTION_DDOT":0},{"OBJECT_NAME":"KUIPER-00106","OBJECT_ID":"2025-171N","EPOCH":"2026-03-04T12:05:12.406848","MEAN_MOTION":14.97149195,"ECCENTRICITY":0.0007926,"INCLINATION":51.894,"RA_OF_ASC_NODE":178.5372,"ARG_OF_PERICENTER":83.1033,"MEAN_ANOMALY":277.0838,"EPHEMERIS_TYPE":0,"CLASSIFICATION_TYPE":"U","NORAD_CAT_ID":65144,"ELEMENT_SET_NO":999,"REV_AT_EPOCH":3216,"BSTAR":0.0009214,"MEAN_MOTION_DOT":0.0001052,"MEAN_MOTION_DDOT":0},{"OBJECT_NAME":"KUIPER-00107","OBJECT_ID":"2025-171P","EPOCH":"2026-03-04T11:43:20.874720","MEAN_MOTION":14.79988999,"ECCENTRICITY":3.29e-5,"INCLINATION":51.8998,"RA_OF_ASC_NODE":171.0921,"ARG_OF_PERICENTER":33.6691,"MEAN_ANOMALY":326.4292,"EPHEMERIS_TYPE":0,"CLASSIFICATION_TYPE":"U","NORAD_CAT_ID":65145,"ELEMENT_SET_NO":999,"REV_AT_EPOCH":3226,"BSTAR":0.0012207,"MEAN_MOTION_DOT":9.109e-5,"MEAN_MOTION_DDOT":0},{"OBJECT_NAME":"KUIPER-00108","OBJECT_ID":"2025-171Q","EPOCH":"2026-03-03T13:31:04.163232","MEAN_MOTION":14.79950027,"ECCENTRICITY":0.0001579,"INCLINATION":51.9038,"RA_OF_ASC_NODE":187.6962,"ARG_OF_PERICENTER":159.4022,"MEAN_ANOMALY":200.7004,"EPHEMERIS_TYPE":0,"CLASSIFICATION_TYPE":"U","NORAD_CAT_ID":65146,"ELEMENT_SET_NO":999,"REV_AT_EPOCH":3195,"BSTAR":0.00037672,"MEAN_MOTION_DOT":2.653e-5,"MEAN_MOTION_DDOT":0},{"OBJECT_NAME":"KUIPER-00109","OBJECT_ID":"2025-171R","EPOCH":"2026-03-04T11:31:35.820480","MEAN_MOTION":14.79943613,"ECCENTRICITY":5.63e-5,"INCLINATION":51.9019,"RA_OF_ASC_NODE":178.5855,"ARG_OF_PERICENTER":88.7728,"MEAN_ANOMALY":271.3299,"EPHEMERIS_TYPE":0,"CLASSIFICATION_TYPE":"U","NORAD_CAT_ID":65147,"ELEMENT_SET_NO":999,"REV_AT_EPOCH":3215,"BSTAR":0.00067643,"MEAN_MOTION_DOT":4.941e-5,"MEAN_MOTION_DDOT":0},{"OBJECT_NAME":"KUIPER-00110","OBJECT_ID":"2025-171S","EPOCH":"2026-03-04T12:02:22.423488","MEAN_MOTION":14.79920481,"ECCENTRICITY":0.0001869,"INCLINATION":51.9011,"RA_OF_ASC_NODE":191.0902,"ARG_OF_PERICENTER":174.8095,"MEAN_ANOMALY":185.2887,"EPHEMERIS_TYPE":0,"CLASSIFICATION_TYPE":"U","NORAD_CAT_ID":65148,"ELEMENT_SET_NO":999,"REV_AT_EPOCH":3197,"BSTAR":0.0011284,"MEAN_MOTION_DOT":8.389e-5,"MEAN_MOTION_DDOT":0},{"OBJECT_NAME":"KUIPER-00111","OBJECT_ID":"2025-171T","EPOCH":"2026-03-04T09:26:55.731840","MEAN_MOTION":14.8001096,"ECCENTRICITY":0.0001851,"INCLINATION":51.8984,"RA_OF_ASC_NODE":196.4661,"ARG_OF_PERICENTER":138.4355,"MEAN_ANOMALY":221.6748,"EPHEMERIS_TYPE":0,"CLASSIFICATION_TYPE":"U","NORAD_CAT_ID":65149,"ELEMENT_SET_NO":999,"REV_AT_EPOCH":3189,"BSTAR":0.0010969,"MEAN_MOTION_DOT":8.166e-5,"MEAN_MOTION_DDOT":0},{"OBJECT_NAME":"KUIPER-00112","OBJECT_ID":"2025-171U","EPOCH":"2026-03-04T07:28:35.149152","MEAN_MOTION":14.79985886,"ECCENTRICITY":3.18e-5,"INCLINATION":51.9031,"RA_OF_ASC_NODE":179.3873,"ARG_OF_PERICENTER":102.6852,"MEAN_ANOMALY":257.4146,"EPHEMERIS_TYPE":0,"CLASSIFICATION_TYPE":"U","NORAD_CAT_ID":65150,"ELEMENT_SET_NO":999,"REV_AT_EPOCH":3212,"BSTAR":0.0010457,"MEAN_MOTION_DOT":7.769e-5,"MEAN_MOTION_DDOT":0},{"OBJECT_NAME":"KUIPER-00114","OBJECT_ID":"2025-171V","EPOCH":"2026-03-04T09:23:17.616768","MEAN_MOTION":14.79957669,"ECCENTRICITY":0.0001293,"INCLINATION":51.9011,"RA_OF_ASC_NODE":199.0336,"ARG_OF_PERICENTER":129.9753,"MEAN_ANOMALY":230.1323,"EPHEMERIS_TYPE":0,"CLASSIFICATION_TYPE":"U","NORAD_CAT_ID":65151,"ELEMENT_SET_NO":999,"REV_AT_EPOCH":3185,"BSTAR":0.0010869,"MEAN_MOTION_DOT":8.079e-5,"MEAN_MOTION_DDOT":0},{"OBJECT_NAME":"KUIPER-00115","OBJECT_ID":"2025-171W","EPOCH":"2026-03-03T15:45:05.736960","MEAN_MOTION":14.79942726,"ECCENTRICITY":7.23e-5,"INCLINATION":51.8991,"RA_OF_ASC_NODE":194.7678,"ARG_OF_PERICENTER":92.7285,"MEAN_ANOMALY":267.376,"EPHEMERIS_TYPE":0,"CLASSIFICATION_TYPE":"U","NORAD_CAT_ID":65152,"ELEMENT_SET_NO":999,"REV_AT_EPOCH":3185,"BSTAR":0.00086096681,"MEAN_MOTION_DOT":6.35e-5,"MEAN_MOTION_DDOT":0},{"OBJECT_NAME":"KUIPER-00116","OBJECT_ID":"2025-171X","EPOCH":"2026-03-04T08:38:31.315488","MEAN_MOTION":14.79915616,"ECCENTRICITY":0.0001159,"INCLINATION":51.9012,"RA_OF_ASC_NODE":196.6948,"ARG_OF_PERICENTER":132.4294,"MEAN_ANOMALY":227.6766,"EPHEMERIS_TYPE":0,"CLASSIFICATION_TYPE":"U","NORAD_CAT_ID":65153,"ELEMENT_SET_NO":999,"REV_AT_EPOCH":3188,"BSTAR":-0.00016889,"MEAN_MOTION_DOT":-1.508e-5,"MEAN_MOTION_DDOT":0},{"OBJECT_NAME":"KUIPER-00118","OBJECT_ID":"2025-171Y","EPOCH":"2026-03-04T08:34:25.236192","MEAN_MOTION":14.80004029,"ECCENTRICITY":5.72e-5,"INCLINATION":51.8988,"RA_OF_ASC_NODE":199.163,"ARG_OF_PERICENTER":78.4592,"MEAN_ANOMALY":281.6435,"EPHEMERIS_TYPE":0,"CLASSIFICATION_TYPE":"U","NORAD_CAT_ID":65154,"ELEMENT_SET_NO":999,"REV_AT_EPOCH":3185,"BSTAR":0.001038,"MEAN_MOTION_DOT":7.714e-5,"MEAN_MOTION_DDOT":0},{"OBJECT_NAME":"KUIPER-00119","OBJECT_ID":"2025-171Z","EPOCH":"2026-03-04T12:08:34.215648","MEAN_MOTION":14.79977709,"ECCENTRICITY":0.0001354,"INCLINATION":51.9007,"RA_OF_ASC_NODE":186.0919,"ARG_OF_PERICENTER":136.4514,"MEAN_ANOMALY":223.6555,"EPHEMERIS_TYPE":0,"CLASSIFICATION_TYPE":"U","NORAD_CAT_ID":65155,"ELEMENT_SET_NO":999,"REV_AT_EPOCH":3204,"BSTAR":0.0013847,"MEAN_MOTION_DOT":0.00010362,"MEAN_MOTION_DDOT":0},{"OBJECT_NAME":"KUIPER-00120","OBJECT_ID":"2025-217A","EPOCH":"2026-03-04T12:00:00.998784","MEAN_MOTION":14.79965124,"ECCENTRICITY":3.32e-5,"INCLINATION":51.8972,"RA_OF_ASC_NODE":76.0195,"ARG_OF_PERICENTER":83.5296,"MEAN_ANOMALY":62.6093,"EPHEMERIS_TYPE":0,"CLASSIFICATION_TYPE":"U","NORAD_CAT_ID":65762,"ELEMENT_SET_NO":999,"REV_AT_EPOCH":366,"BSTAR":0.0057159,"MEAN_MOTION_DOT":0.0004367,"MEAN_MOTION_DDOT":0}]
