KUIPER-00102            
1 65140U 25171J   26063.48291416  .00008487  00000+0  11395-2 0  9991
2 65140  51.8988 176.1019 0000560  84.2222 275.8804 14.79982140 32186
KUIPER-00103            
1 65141U 25171K   26062.62001332  .00005948  00000+0  80767-3 0  9992
2 65141  51.8989 197.4104 0002193 125.2704 234.8464 14.79980418 31816
KUIPER-00104            
1 65142U 25171L   26063.30867187 -.00006598  00000+0 -83775-3 0  9993
2 65142  51.9012 181.8248 0000558  58.1470 301.9546 14.79911932 32091
KUIPER-00105            
1 65143U 25171M   26063.33406692 -.00038773  00000+0 -50912-2 0  9993
2 65143  51.8998 189.3316 0001013  96.3040 263.8038 14.79893247 31995
KUIPER-00106            
1 65144U 25171N   26063.50361582  .00010520  00000+0  92140-3 0  9999
2 65144  51.8940 178.5372 0007926  83.1033 277.0838 14.97149195 32161
KUIPER-00107            
1 65145U 25171P   26063.48843605  .00009109  00000+0  12207-2 0  9994
2 65145  51.8998 171.0921 0000329  33.6691 326.4292 14.79988999 32260
KUIPER-00108            
1 65146U 25171Q   26062.56324263  .00002653  00000+0  37672-3 0  9998
2 65146  51.9038 187.6962 0001579 159.4022 200.7004 14.79950027 31959
KUIPER-00109            
1 65147U 25171R   26063.48027570  .00004941  00000+0  67643-3 0  9995
2 65147  51.9019 178.5855 0000563  88.7728 271.3299 14.79943613 32154
KUIPER-00110            
1 65148U 25171S   26063.50164842  .00008389  00000+0  11284-2 0  9992
2 65148  51.9011 191.0902 0001869 174.8095 185.2887 14.79920481 31977
KUIPER-00111            
1 65149U 25171T   26063.39370060  .00008166  00000+0  10969-2 0  9993
2 65149  51.8984 196.4661 0001851 138.4355 221.6748 14.80010960 31899
KUIPER-00112            
1 65150U 25171U   26063.31151793  .00007769  00000+0  10457-2 0  9997
2 65150  51.9031 179.3873 0000318 102.6852 257.4146 14.79985886 32124
KUIPER-00114            
1 65151U 25171V   26063.39117612  .00008079  00000+0  10869-2 0  9990
2 65151  51.9011 199.0336 0001293 129.9753 230.1323 14.79957669 31853
KUIPER-00115            
1 65152U 25171W   26062.65631640  .00006350  00000+0  86097-3 0  9998
2 65152  51.8991 194.7678 0000723  92.7285 267.3760 14.79942726 31850
KUIPER-00116            
1 65153U 25171X   26063.36008467 -.00001508  00000+0 -16889-3 0  9997
2 65153  51.9012 196.6948 0001159 132.4294 227.6766 14.79915616 31889
KUIPER-00118            
1 65154U 25171Y   26063.35723653  .00007714  00000+0  10380-2 0  9990
2 65154  51.8988 199.1630 0000572  78.4592 281.6435 14.80004029 31854
KUIPER-00119            
1 65155U 25171Z   26063.50595157  .00010362  00000+0  13847-2 0  9998
2 65155  51.9007 186.0919 0001354 136.4514 223.6555 14.79977709 32044
KUIPER-00120            
1 65762U 25217A   26063.50001156  .00043670  00000+0  57159-2 0  9996
2 65762  51.8972  76.0195 0000332  83.5296  62.6093 14.79965124  3668
